STARLINK-1752
1 26338C 20062Q   21325.13820873  .00009659  00000-0  64728-3 0  3251
2 26338  53.0536 222.6032 0001900  67.1360  39.0643 15.06379750    17
